OBJECT_NAME,OBJECT_ID,EPOCH,MEAN_MOTION,ECCENTRICITY,INCLINATION,RA_OF_ASC_NODE,ARG_OF_PERICENTER,MEAN_ANOMALY,EPHEMERIS_TYPE,CLASSIFICATION_TYPE,NORAD_CAT_ID,ELEMENT_SET_NO,REV_AT_EPOCH,BSTAR,MEAN_MOTION_DOT,MEAN_MOTION_DDOT
NIMIQ 2,2002-062A,2026-07-13T04:53:22.748928,1.00270205,.0005248,9.5038,56.6190,54.3642,144.2390,0,U,27632,999,4444,0,-.79E-6,0
USA 167,2003-008A,2026-07-13T04:37:26.530752,1.00270462,.0003271,11.0111,43.1712,308.3672,247.1577,0,U,27691,999,703,0,-.6E-7,0
USA 169 (MILSTAR-2 4),2003-012A,2026-07-12T21:04:35.819904,1.00273475,.0099255,12.3871,29.6277,10.1756,359.2470,0,U,27711,999,3321,0,-.206E-5,0
ASIASAT 4,2003-014A,2026-07-12T14:44:40.844832,1.00270315,.0002912,4.7669,75.4271,37.3037,186.4774,0,U,27718,999,4555,0,-.227E-5,0
HELLAS-SAT 2,2003-020A,2026-07-13T00:48:38.471040,1.00271284,.0003502,7.4163,67.5718,79.5246,145.9491,0,U,27811,999,4310,0,-.93E-6,0
THURAYA-2,2003-026A,2026-07-13T03:24:32.306976,1.00273090,.0002503,8.8785,31.8563,24.9600,329.3487,0,U,27825,999,8460,0,.117E-5,0
OPTUS C1,2003-028B,2026-07-12T11:07:38.441568,1.00269392,.00051919,6.9502,69.1002,39.8646,144.0159,0,U,27831,999,5331,0,-.158E-5,0
USA 170,2003-040A,2026-07-12T19:19:38.720064,1.00274128,.0001768,10.5525,47.7002,79.9345,117.1935,0,U,27875,999,3325,0,.117E-5,0
GALAXY 13 (HORIZONS-1),2003-044A,2026-07-13T04:25:47.470944,1.00270387,.0002161,1.4843,83.5332,26.2199,97.7457,0,U,27954,999,4683,0,.129E-5,0
YAMAL 202,2003-053A,2026-07-12T21:07:57.997632,1.00272109,.0003296,6.4048,70.6255,40.4320,300.2458,0,U,28089,999,8295,0,-.87E-6,0
UFO 11 (USA 174),2003-057A,2026-07-13T01:50:48.547392,1.00270253,.0002663,8.9553,33.6968,91.9224,268.6257,0,U,28117,999,8270,0,-.112E-5,0
USA 176 (DSP 22),2004-004A,2026-07-13T03:36:44.241120,1.00266384,.0001129,12.0966,25.8734,287.2309,342.7134,0,U,28158,999,3319,0,-.306E-5,0
ABS-4 (MOBISAT-1),2004-007A,2026-07-13T03:29:16.853280,1.00272886,.0004608,6.1047,71.6900,41.6083,290.9895,0,U,28184,999,5259,0,.31E-6,0
INTELSAT 10-02,2004-022A,2026-07-12T23:46:16.586400,1.00271565,.0000516,0.0534,251.1781,344.4139,50.8437,0,U,28358,999,8081,0,-.12E-6,0
ANIK F2,2004-027A,2026-07-13T04:48:44.642016,1.00271238,.0003555,3.3523,79.0991,31.3191,141.7206,0,U,28378,999,4152,0,-.55E-6,0
AMC-15,2004-041A,2026-07-12T07:22:38.750880,1.00271234,.00022643,0.0346,304.3045,184.5757,166.9270,0,U,28446,999,7955,0,-.87E-6,0
NSS-10,2005-003A,2026-07-13T02:46:57.729216,1.00270632,.0002585,6.5121,70.1344,39.2409,185.9114,0,U,28526,999,5341,0,-.26E-5,0
INMARSAT 4-F1,2005-009A,2026-07-12T07:47:38.777568,1.00271047,.00024737,5.2012,42.7812,73.2040,109.2466,0,U,28628,999,7792,0,.3E-6,0
DIRECTV 8,2005-019A,2026-07-13T04:39:12.515904,1.00271183,.0003029,0.0136,336.6178,150.7355,114.4679,0,U,28659,999,7733,0,-.1E-7,0
GALAXY 28 (G-28),2005-022A,2026-07-13T03:04:11.755776,1.00270707,.0002312,3.3632,78.6147,31.8600,199.4733,0,U,28702,999,5223,0,-.206E-5,0
THAICOM 4,2005-028A,2026-07-13T02:03:09.861984,1.00270710,.0001371,0.3098,85.5404,9.0309,346.6778,0,U,28786,999,5250,0,-.364E-5,0
ANIK F1R,2005-036A,2026-07-13T05:10:48.085248,1.00271337,.0003713,4.3768,76.2561,27.9497,157.2890,0,U,28868,999,4671,0,-.82E-6,0
SYRACUSE 3A,2005-041B,2026-07-12T21:39:38.783808,1.00273118,.0002743,4.7055,75.5237,31.1772,195.6283,0,U,28885,999,7600,0,.123E-5,0
INMARSAT 4-F2,2005-044A,2026-07-13T00:27:20.150208,1.00270656,.0002776,5.1282,43.6566,60.2901,337.2817,0,U,28899,999,7578,0,-.266E-5,0
METEOSAT-9 (MSG-2),2005-049B,2026-07-12T17:08:58.401312,1.00270809,.0002069,9.4169,53.9114,356.4879,183.1097,0,U,28912,999,725,0,.116E-5,0
EUTELSAT 174A,2005-052A,2026-07-12T21:10:57.711360,1.00270493,.0005769,4.2813,76.2084,37.8601,308.3876,0,U,28924,999,5258,0,.3E-7,0
ECHOSTAR 10,2006-003A,2026-07-13T04:48:44.748288,1.00270678,.0001063,0.0341,309.9980,138.4720,164.6160,0,U,28935,999,7472,0,-.58E-6,0
SPAINSAT,2006-007A,2026-07-12T06:40:13.100160,1.00270006,.0004606,0.6256,86.1044,24.6291,249.3073,0,U,28945,999,7446,0,-.216E-5,0
JCSAT-5A,2006-010A,2026-07-13T00:24:12.949056,1.00270270,.0001629,1.1737,83.9294,24.6241,320.4363,0,U,29045,999,7402,0,-.331E-5,0
ASTRA 1KR,2006-012A,2026-07-13T03:17:18.000960,1.00269425,.0003282,0.5384,83.1741,21.2003,254.9694,0,U,29055,999,4595,0,.116E-5,0
GALAXY 16 (G-16),2006-023A,2026-07-12T19:52:53.842080,1.00271154,.0002438,0.0377,111.3355,11.0191,7.5822,0,U,29236,999,7323,0,-.127E-5,0
EUTELSAT 33F,2006-032A,2026-07-13T03:21:17.619264,1.00270625,.0003377,1.7263,81.9522,27.1387,265.3131,0,U,29270,999,4756,0,.152E-5,0
