NIMIQ 2                 
1 27632U 02062A   26194.20373552 -.00000079  00000+0  00000+0 0  9994
2 27632   9.5038  56.6190 0005248  54.3642 144.2390  1.00270205 44443
USA 167                 
1 27691U 03008A   26194.19266818 -.00000006  00000+0  00000+0 0  9994
2 27691  11.0111  43.1712 0003271 308.3672 247.1577  1.00270462  7037
USA 169 (MILSTAR-2 4)   
1 27711U 03012A   26193.87819236 -.00000206  00000+0  00000+0 0  9996
2 27711  12.3871  29.6277 0099255  10.1756 359.2470  1.00273475 33213
ASIASAT 4               
1 27718U 03014A   26193.61436163 -.00000227  00000+0  00000+0 0  9994
2 27718   4.7669  75.4271 0002912  37.3037 186.4774  1.00270315 45557
HELLAS-SAT 2            
1 27811U 03020A   26194.03377860 -.00000093  00000+0  00000+0 0  9991
2 27811   7.4163  67.5718 0003502  79.5246 145.9491  1.00271284 43105
THURAYA-2               
1 27825U 03026A   26194.14204059  .00000117  00000+0  00000+0 0  9999
2 27825   8.8785  31.8563 0002503  24.9600 329.3487  1.00273090 84605
OPTUS C1                
1 27831U 03028B   26193.46363937 -.00000158  00000+0  00000+0 0  9999
2 27831   6.9502  69.1002 0005191  39.8646 144.0159  1.00269392 53313
USA 170                 
1 27875U 03040A   26193.80530926  .00000117  00000+0  00000+0 0  9997
2 27875  10.5525  47.7002 0001768  79.9345 117.1935  1.00274128 33253
GALAXY 13 (HORIZONS-1)  
1 27954U 03044A   26194.18457721  .00000129  00000+0  00000+0 0  9995
2 27954   1.4843  83.5332 0002161  26.2199  97.7457  1.00270387 46830
YAMAL 202               
1 28089U 03053A   26193.88053238 -.00000087  00000+0  00000+0 0  9990
2 28089   6.4048  70.6255 0003296  40.4320 300.2458  1.00272109 82957
UFO 11 (USA 174)        
1 28117U 03057A   26194.07695078 -.00000112  00000+0  00000+0 0  9991
2 28117   8.9553  33.6968 0002663  91.9224 268.6257  1.00270253 82703
USA 176 (DSP 22)        
1 28158U 04004A   26194.15051205 -.00000306  00000+0  00000+0 0  9991
2 28158  12.0966  25.8734 0001129 287.2309 342.7134  1.00266384 33193
ABS-4 (MOBISAT-1)       
1 28184U 04007A   26194.14533395  .00000031  00000+0  00000+0 0  9991
2 28184   6.1047  71.6900 0004608  41.6083 290.9895  1.00272886 52593
INTELSAT 10-02          
1 28358U 04022A   26193.99046975 -.00000012  00000+0  00000+0 0  9996
2 28358   0.0534 251.1781 0000516 344.4139  50.8437  1.00271565 80816
ANIK F2                 
1 28378U 04027A   26194.20051669 -.00000055  00000+0  00000+0 0  9991
2 28378   3.3523  79.0991 0003555  31.3191 141.7206  1.00271238 41524
AMC-15                  
1 28446U 04041A   26193.30739295 -.00000087  00000+0  00000+0 0  9996
2 28446   0.0346 304.3045 0002264 184.5757 166.9270  1.00271234 79556
NSS-10                  
1 28526U 05003A   26194.11594594 -.00000260  00000+0  00000+0 0  9998
2 28526   6.5121  70.1344 0002585  39.2409 185.9114  1.00270632 53419
INMARSAT 4-F1           
1 28628U 05009A   26193.32475437  .00000030  00000+0  00000+0 0  9997
2 28628   5.2012  42.7812 0002473  73.2040 109.2466  1.00271047 77929
DIRECTV 8               
1 28659U 05019A   26194.19389486 -.00000001  00000+0  00000+0 0  9995
2 28659   0.0136 336.6178 0003029 150.7355 114.4679  1.00271183 77331
GALAXY 28 (G-28)        
1 28702U 05022A   26194.12791384 -.00000206  00000+0  00000+0 0  9992
2 28702   3.3632  78.6147 0002312  31.8600 199.4733  1.00270707 52239
THAICOM 4               
1 28786U 05028A   26194.08553081 -.00000364  00000+0  00000+0 0  9990
2 28786   0.3098  85.5404 0001371   9.0309 346.6778  1.00270710 52503
ANIK F1R                
1 28868U 05036A   26194.21583432 -.00000082  00000+0  00000+0 0  9995
2 28868   4.3768  76.2561 0003713  27.9497 157.2890  1.00271337 46715
SYRACUSE 3A             
1 28885U 05041B   26193.90253222  .00000123  00000+0  00000+0 0  9991
2 28885   4.7055  75.5237 0002743  31.1772 195.6283  1.00273118 76000
INMARSAT 4-F2           
1 28899U 05044A   26194.01898322 -.00000266  00000+0  00000+0 0  9997
2 28899   5.1282  43.6566 0002776  60.2901 337.2817  1.00270656 75781
METEOSAT-9 (MSG-2)      
1 28912U 05049B   26193.71456483  .00000116  00000+0  00000+0 0  9995
2 28912   9.4169  53.9114 0002069 356.4879 183.1097  1.00270809  7255
EUTELSAT 174A           
1 28924U 05052A   26193.88261240  .00000003  00000+0  00000+0 0  9990
2 28924   4.2813  76.2084 0005769  37.8601 308.3876  1.00270493 52585
ECHOSTAR 10             
1 28935U 06003A   26194.20051792 -.00000058  00000+0  00000+0 0  9996
2 28935   0.0341 309.9980 0001063 138.4720 164.6160  1.00270678 74725
SPAINSAT                
1 28945U 06007A   26193.27792940 -.00000216  00000+0  00000+0 0  9990
2 28945   0.6256  86.1044 0004606  24.6291 249.3073  1.00270006 74467
JCSAT-5A                
1 29045U 06010A   26194.01681654 -.00000331  00000+0  00000+0 0  9996
2 29045   1.1737  83.9294 0001629  24.6241 320.4363  1.00270270 74026
ASTRA 1KR               
1 29055U 06012A   26194.13701390  .00000116  00000+0  00000+0 0  9992
2 29055   0.5384  83.1741 0003282  21.2003 254.9694  1.00269425 45951
GALAXY 16 (G-16)        
1 29236U 06023A   26193.82840095 -.00000127  00000+0  00000+0 0  9999
2 29236   0.0377 111.3355 0002438  11.0191   7.5822  1.00271154 73230
EUTELSAT 33F            
1 29270U 06032A   26194.13978726  .00000152  00000+0  00000+0 0  9992
2 29270   1.7263  81.9522 0003377  27.1387 265.3131  1.00270625 47562
